{"type": "FeatureCollection", "features": [ {"type": "Feature", "properties": {"norad_id": 34833, "name": "IRIDIUM 33 DEB", "group": "iridium-33-debris", "lat": -26.683656040287644, "lon": -126.93969064588627, "alt_km": 728.1178291218066, "timestamp": "2025-12-12T03:50:52.803331+00:00", "meta": {"OBJECT_NAME": "IRIDIUM 33 DEB", "OBJECT_ID": "1997-051MH", "EPOCH": "2025-12-10T23:03:13.627296", "MEAN_MOTION": 14.52360033, "ECCENTRICITY": 0.00218068, "INCLINATION": 86.3925, "RA_OF_ASC_NODE": 51.7603, "ARG_OF_PERICENTER": 104.0479, "MEAN_ANOMALY": 313.4117, "EPHEMERIS_TYPE": 0, "CLASSIFICATION_TYPE": "U", "NORAD_CAT_ID": 34833, "ELEMENT_SET_NO": 999, "REV_AT_EPOCH": 87689, "BSTAR": 0.0011952605, "MEAN_MOTION_DOT": 4.899e-05, "MEAN_MOTION_DDOT": 0}, "tle": {"line1": "1 34833U 97051MH  25344.96057439  .00004899  00000+0  11953-2 0  9994", "line2": "2 34833  86.3925  51.7603 0021806 104.0479 313.4117 14.52360033876895"}}, "geometry": {"type": "Point", "coordinates": [-126.93969064588627, -26.683656040287644]}}, {"type": "Feature", "properties": {"norad_id": 34870, "name": "IRIDIUM 33 DEB", "group": "iridium-33-debris", "lat": 51.59517552334081, "lon": 129.68086259717768, "alt_km": 629.8756560139936, "timestamp": "2025-12-12T03:50:52.803341+00:00", "meta": {"OBJECT_NAME": "IRIDIUM 33 DEB", "OBJECT_ID": "1997-051MQ", "EPOCH": "2025-12-10T16:16:47.325792", "MEAN_MOTION": 14.76360658, "ECCENTRICITY": 0.00158788, "INCLINATION": 86.3108, "RA_OF_ASC_NODE": 315.0279, "ARG_OF_PERICENTER": 190.0668, "MEAN_ANOMALY": 346.5866, "EPHEMERIS_TYPE": 0, "CLASSIFICATION_TYPE": "U", "NORAD_CAT_ID": 34870, "ELEMENT_SET_NO": 999, "REV_AT_EPOCH": 88880, "BSTAR": 0.0023954817, "MEAN_MOTION_DOT": 0.00016709, "MEAN_MOTION_DDOT": 0}, "tle": {"line1": "1 34870U 97051MQ  25344.67832553  .00016709  00000+0  23955-2 0  9999", "line2": "2 34870  86.3108 315.0279 0015878 190.0668 346.5866 14.76360658888802"}}, "geometry": {"type": "Point", "coordinates": [129.68086259717768, 51.59517552334081]}}, {"type": "Feature", "properties": {"norad_id": 34896, "name": "IRIDIUM 33 DEB", "group": "iridium-33-debris", "lat": -9.272831761484, "lon": -33.65505456128397, "alt_km": 689.0071547785838, "timestamp": "2025-12-12T03:50:52.803351+00:00", "meta": {"OBJECT_NAME": "IRIDIUM 33 DEB", "OBJECT_ID": "1997-051MY", "EPOCH": "2025-12-11T06:54:08.257248", "MEAN_MOTION": 14.66256347, "ECCENTRICITY": 0.00241983, "INCLINATION": 86.3294, "RA_OF_ASC_NODE": 327.3367, "ARG_OF_PERICENTER": 219.9786, "MEAN_ANOMALY": 206.8534, "EPHEMERIS_TYPE": 0, "CLASSIFICATION_TYPE": "U", "NORAD_CAT_ID": 34896, "ELEMENT_SET_NO": 999, "REV_AT_EPOCH": 87598, "BSTAR": 0.0017967326, "MEAN_MOTION_DOT": 9.969e-05, "MEAN_MOTION_DDOT": 0}, "tle": {"line1": "1 34896U 97051MY  25345.28759557  .00009969  00000+0  17967-2 0  9993", "line2": "2 34896  86.3294 327.3367 0024198 219.9786 206.8534 14.66256347875980"}}, "geometry": {"type": "Point", "coordinates": [-33.65505456128397, -9.272831761484]}}, {"type": "Feature", "properties": {"norad_id": 34926, "name": "IRIDIUM 33 DEB", "group": "iridium-33-debris", "lat": 77.31880635681586, "lon": 171.04376670481153, "alt_km": 756.5454077074737, "timestamp": "2025-12-12T03:50:52.803363+00:00", "meta": {"OBJECT_NAME": "IRIDIUM 33 DEB", "OBJECT_ID": "1997-051NF", "EPOCH": "2025-12-11T01:05:29.819328", "MEAN_MOTION": 14.54283993, "ECCENTRICITY": 0.00757067, "INCLINATION": 86.1321, "RA_OF_ASC_NODE": 9.0582, "ARG_OF_PERICENTER": 298.5987, "MEAN_ANOMALY": 90.146, "EPHEMERIS_TYPE": 0, "CLASSIFICATION_TYPE": "U", "NORAD_CAT_ID": 34926, "ELEMENT_SET_NO": 999, "REV_AT_EPOCH": 86432, "BSTAR": 0.0083538341, "MEAN_MOTION_DOT": 0.00036974, "MEAN_MOTION_DDOT": 0}, "tle": {"line1": "1 34926U 97051NF  25345.04548402  .00036974  00000+0  83538-2 0  9999", "line2": "2 34926  86.1321   9.0582 0075706 298.5987  90.1460 14.54283993864325"}}, "geometry": {"type": "Point", "coordinates": [171.04376670481153, 77.31880635681586]}}, {"type": "Feature", "properties": {"norad_id": 34985, "name": "IRIDIUM 33 DEB", "group": "iridium-33-debris", "lat": -72.52275331913592, "lon": -111.24068046905623, "alt_km": 746.6675903163004, "timestamp": "2025-12-12T03:50:52.803373+00:00", "meta": {"OBJECT_NAME": "IRIDIUM 33 DEB", "OBJECT_ID": "1997-051NR", "EPOCH": "2025-12-11T11:45:25.383168", "MEAN_MOTION": 14.42002723, "ECCENTRICITY": 0.00206039, "INCLINATION": 86.3696, "RA_OF_ASC_NODE": 57.4124, "ARG_OF_PERICENTER": 224.0438, "MEAN_ANOMALY": 150.4182, "EPHEMERIS_TYPE": 0, "CLASSIFICATION_TYPE": "U", "NORAD_CAT_ID": 34985, "ELEMENT_SET_NO": 999, "REV_AT_EPOCH": 87157, "BSTAR": 0.0012198986, "MEAN_MOTION_DOT": 4.029e-05, "MEAN_MOTION_DDOT": 0}, "tle": {"line1": "1 34985U 97051NR  25345.48987712  .00004029  00000+0  12199-2 0  9994", "line2": "2 34985  86.3696  57.4124 0020603 224.0438 150.4182 14.42002723871570"}}, "geometry": {"type": "Point", "coordinates": [-111.24068046905623, -72.52275331913592]}}, {"type": "Feature", "properties": {"norad_id": 35051, "name": "IRIDIUM 33 DEB", "group": "iridium-33-debris", "lat": 5.912689975063315, "lon": -171.26694363488213, "alt_km": 734.6788166741735, "timestamp": "2025-12-12T03:50:52.803383+00:00", "meta": {"OBJECT_NAME": "IRIDIUM 33 DEB", "OBJECT_ID": "1997-051NX", "EPOCH": "2025-12-11T08:47:57.045408", "MEAN_MOTION": 14.47588957, "ECCENTRICITY": 0.00106566, "INCLINATION": 86.3243, "RA_OF_ASC_NODE": 9.4603, "ARG_OF_PERICENTER": 94.8899, "MEAN_ANOMALY": 265.3522, "EPHEMERIS_TYPE": 0, "CLASSIFICATION_TYPE": "U", "NORAD_CAT_ID": 35051, "ELEMENT_SET_NO": 999, "REV_AT_EPOCH": 86976, "BSTAR": 0.001042299, "MEAN_MOTION_DOT": 3.858e-05, "MEAN_MOTION_DDOT": 0}, "tle": {"line1": "1 35051U 97051NX  25345.36663247  .00003858  00000+0  10423-2 0  9997", "line2": "2 35051  86.3243   9.4603 0010656  94.8899 265.3522 14.47588957869768"}}, "geometry": {"type": "Point", "coordinates": [-171.26694363488213, 5.912689975063315]}}, {"type": "Feature", "properties": {"norad_id": 35052, "name": "IRIDIUM 33 DEB", "group": "iridium-33-debris", "lat": -18.270552220742125, "lon": 19.511159798796164, "alt_km": 771.0329726187692, "timestamp": "2025-12-12T03:50:52.803393+00:00", "meta": {"OBJECT_NAME": "IRIDIUM 33 DEB", "OBJECT_ID": "1997-051NY", "EPOCH": "2025-12-11T12:54:27.641952", "MEAN_MOTION": 14.38490165, "ECCENTRICITY": 0.00136793, "INCLINATION": 86.3312, "RA_OF_ASC_NODE": 20.9917, "ARG_OF_PERICENTER": 88.4217, "MEAN_ANOMALY": 271.8548, "EPHEMERIS_TYPE": 0, "CLASSIFICATION_TYPE": "U", "NORAD_CAT_ID": 35052, "ELEMENT_SET_NO": 999, "REV_AT_EPOCH": 87258, "BSTAR": 0.00027419057, "MEAN_MOTION_DOT": 8.58e-06, "MEAN_MOTION_DDOT": 0}, "tle": {"line1": "1 35052U 97051NY  25345.53781993  .00000858  00000+0  27419-3 0  9997", "line2": "2 35052  86.3312  20.9917 0013679  88.4217 271.8548 14.38490165872580"}}, "geometry": {"type": "Point", "coordinates": [19.511159798796164, -18.270552220742125]}}, {"type": "Feature", "properties": {"norad_id": 35080, "name": "IRIDIUM 33 DEB", "group": "iridium-33-debris", "lat": 56.97282429126093, "lon": 58.51064807629696, "alt_km": 629.0795339292126, "timestamp": "2025-12-12T03:50:52.803406+00:00", "meta": {"OBJECT_NAME": "IRIDIUM 33 DEB", "OBJECT_ID": "1997-051PF", "EPOCH": "2025-12-11T14:39:31.999392", "MEAN_MOTION": 14.85859571, "ECCENTRICITY": 0.00606666, "INCLINATION": 86.2068, "RA_OF_ASC_NODE": 52.9156, "ARG_OF_PERICENTER": 183.679, "MEAN_ANOMALY": 176.3998, "EPHEMERIS_TYPE": 0, "CLASSIFICATION_TYPE": "U", "NORAD_CAT_ID": 35080, "ELEMENT_SET_NO": 999, "REV_AT_EPOCH": 69671, "BSTAR": 0.0092622629, "MEAN_MOTION_DOT": 0.00084254, "MEAN_MOTION_DDOT": 0}, "tle": {"line1": "1 35080U 97051PF  25345.61078703  .00084254  00000+0  92623-2 0  9995", "line2": "2 35080  86.2068  52.9156 0060666 183.6790 176.3998 14.85859571696719"}}, "geometry": {"type": "Point", "coordinates": [58.51064807629696, 56.97282429126093]}}, {"type": "Feature", "properties": {"norad_id": 35297, "name": "IRIDIUM 33 DEB", "group": "iridium-33-debris", "lat": -55.191248086171335, "lon": -111.7772270266568, "alt_km": 749.5327873601364, "timestamp": "2025-12-12T03:50:52.803416+00:00", "meta": {"OBJECT_NAME": "IRIDIUM 33 DEB", "OBJECT_ID": "1997-051PM", "EPOCH": "2025-12-06T00:31:29.302752", "MEAN_MOTION": 14.45108459, "ECCENTRICITY": 0.00170329, "INCLINATION": 86.3867, "RA_OF_ASC_NODE": 65.6268, "ARG_OF_PERICENTER": 161.2449, "MEAN_ANOMALY": 198.9384, "EPHEMERIS_TYPE": 0, "CLASSIFICATION_TYPE": "U", "NORAD_CAT_ID": 35297, "ELEMENT_SET_NO": 999, "REV_AT_EPOCH": 70329, "BSTAR": 0.0012426888, "MEAN_MOTION_DOT": 4.371e-05, "MEAN_MOTION_DDOT": 0}, "tle": {"line1": "1 35297U 97051PM  25340.02186693  .00004371  00000+0  12427-2 0  9999", "line2": "2 35297  86.3867  65.6268 0017032 161.2449 198.9384 14.45108459703293"}}, "geometry": {"type": "Point", "coordinates": [-111.7772270266568, -55.191248086171335]}}, {"type": "Feature", "properties": {"norad_id": 35299, "name": "IRIDIUM 33 DEB", "group": "iridium-33-debris", "lat": 2.445171035064826, "lon": -146.7204160550092, "alt_km": 746.066982678437, "timestamp": "2025-12-12T03:50:52.803426+00:00", "meta": {"OBJECT_NAME": "IRIDIUM 33 DEB", "OBJECT_ID": "1997-051PP", "EPOCH": "2025-12-11T14:23:51.968256", "MEAN_MOTION": 14.40851716, "ECCENTRICITY": 0.00589419, "INCLINATION": 86.2884, "RA_OF_ASC_NODE": 33.6823, "ARG_OF_PERICENTER": 106.0138, "MEAN_ANOMALY": 45.6441, "EPHEMERIS_TYPE": 0, "CLASSIFICATION_TYPE": "U", "NORAD_CAT_ID": 35299, "ELEMENT_SET_NO": 999, "REV_AT_EPOCH": 86314, "BSTAR": 0.0011895321, "MEAN_MOTION_DOT": 3.91e-05, "MEAN_MOTION_DDOT": 0}, "tle": {"line1": "1 35299U 97051PP  25345.59990704  .00003910  00000+0  11895-2 0  9990", "line2": "2 35299  86.2884  33.6823 0058941 106.0138  45.6441 14.40851716863140"}}, "geometry": {"type": "Point", "coordinates": [-146.7204160550092, 2.445171035064826]}}]}